GPS BIIR-2  (PRN 13)    
1 24876U 97035A   25107.41319860  .00000050  00000+0  00000+0 0  9991
2 24876  55.7832 115.2303 0088503  53.6870 307.1537  2.00562611203416
GPS BIIR-4  (PRN 20)    
1 26360U 00025A   25108.03418042 -.00000065  00000+0  00000+0 0  9992
2 26360  54.8962  36.4932 0037168 232.4653 305.4539  2.00554869182739
GPS BIIR-5  (PRN 22)    
1 26407U 00040A   25107.75173794  .00000015  00000+0  00000+0 0  9995
2 26407  54.9578 232.0670 0133726 298.5564 234.4685  2.00564966181415
GPS BIIR-8  (PRN 16)    
1 27663U 03005A   25107.89080878  .00000015  00000+0  00000+0 0  9999
2 27663  54.9930 231.8716 0143125  50.0499   3.2384  2.00557602162788
GPS BIIR-11 (PRN 19)    
1 28190U 04009A   25107.34877900 -.00000014  00000+0  00000+0 0  9990
2 28190  55.1914 292.8522 0103240 158.4913  19.8055  2.00569292154438
GPS BIIR-13 (PRN 02)    
1 28474U 04045A   25108.27267273 -.00000072  00000+0  00000+0 0  9998
2 28474  55.3438 341.9828 0166548 302.2178 244.8655  2.00558836149895
GPS BIIRM-1 (PRN 17)    
1 28874U 05038A   25107.31227317 -.00000011  00000+0  00000+0 0  9997
2 28874  55.2360 290.3252 0132710 289.8662 247.8722  2.00564649143297
GPS BIIRM-2 (PRN 31)    
1 29486U 06042A   25107.28961788  .00000035  00000+0  00000+0 0  9991
2 29486  54.6795 168.2362 0103995  45.6511  16.2133  2.00566256135854
GPS BIIRM-3 (PRN 12)    
1 29601U 06052A   25107.63196396  .00000015  00000+0  00000+0 0  9993
2 29601  55.0330 230.8828 0086852  85.7476 275.2378  2.00559699134875
GPS BIIRM-4 (PRN 15)    
1 32260U 07047A   25107.44375857  .00000030  00000+0  00000+0 0  9990
2 32260  53.7903  97.6483 0159701  80.3370 281.4631  2.00549642128270
GPS BIIRM-5 (PRN 29)    
1 32384U 07062A   25107.00450266 -.00000014  00000+0  00000+0 0  9997
2 32384  55.3826 291.2465 0030660 154.2751  19.3485  2.00564478126960
GPS BIIRM-6 (PRN 07)    
1 32711U 08012A   25107.35350793  .00000036  00000+0  00000+0 0  9992
2 32711  54.4575 166.9240 0197198 242.4440 115.6177  2.00556853125212
GPS BIIRM-8 (PRN 05)    
1 35752U 09043A   25107.85246155 -.00000052  00000+0  00000+0 0  9995
2 35752  55.9203  44.2060 0054775  75.3820 295.2773  2.00551121114836
GPS BIIF-1  (PRN 25)    
1 36585U 10022A   25107.16972147  .00000014  00000+0  00000+0 0  9997
2 36585  54.3543 225.7309 0121207  63.9392 295.7929  2.00566847109041
GPS BIIF-3  (PRN 24)    
1 38833U 12053A   25107.53490136  .00000038  00000+0  00000+0 0  9991
2 38833  53.5306 161.0274 0163814  60.1102 301.5891  2.00562252 91790
GPS BIIF-4  (PRN 27)    
1 39166U 13023A   25106.89903771 -.00000011  00000+0  00000+0 0  9993
2 39166  54.8518 286.3024 0133321  47.4491 313.6552  2.00561605 87336
GPS BIIF-5  (PRN 30)    
1 39533U 14008A   25107.39731588  .00000035  00000+0  00000+0 0  9991
2 39533  53.6088 166.6787 0077726 224.2889 135.1657  2.00559905 81697
GPS BIIF-6  (PRN 06)    
1 39741U 14026A   25107.67967956 -.00000078  00000+0  00000+0 0  9991
2 39741  56.6613 348.0616 0035947 319.9690  39.8158  2.00578582 80005
GPS BIIF-7  (PRN 09)    
1 40105U 14045A   25107.26503978  .00000040  00000+0  00000+0 0  9991
2 40105  55.0849 105.4561 0027979 117.4759 242.8198  2.00557036 78426
GPS BIIF-8  (PRN 03)    
1 40294U 14068A   25107.13375025 -.00000050  00000+0  00000+0 0  9993
2 40294  56.6763  47.4165 0058006  64.1711 296.4142  2.00579150 76662
GPS BIIF-9  (PRN 26)    
1 40534U 15013A   25107.77877668  .00000012  00000+0  00000+0 0  9998
2 40534  53.2517 221.7798 0097676  34.7387 325.9026  2.00548835 73297
GPS BIIF-10 (PRN 08)    
1 40730U 15033A   25106.94132442 -.00000010  00000+0  00000+0 0  9999
2 40730  54.3320 284.6243 0104843  24.6226 335.8575  2.00551233 71469
GPS BIIF-11 (PRN 10)    
1 41019U 15062A   25106.49667866 -.00000054  00000+0  00000+0 0  9993
2 41019  56.6529  47.2974 0102854 228.6542 130.4467  2.00566840 69272
GPS BIIF-12 (PRN 32)    
1 41328U 16007A   25108.07684843  .00000048  00000+0  00000+0 0  9998
2 41328  55.2706 106.3328 0087684 242.3560 116.7630  2.00572722 67355
GPS BIII-1  (PRN 04)    
1 43873U 18109A   25107.95933716  .00000049  00000+0  00000+0 0  9993
2 43873  55.4356 108.9791 0033288 197.8972 330.7189  2.00567963 46545
GPS BIII-2  (PRN 18)    
1 44506U 19056A   25107.62753105 -.00000079  00000+0  00000+0 0  9999
2 44506  55.7971 348.0334 0050014 193.2554 357.0862  2.00561602 41535
GPS BIII-3  (PRN 23)    
1 45854U 20041A   25107.20322617 -.00000053  00000+0  00000+0 0  9998
2 45854  56.3719  45.5198 0051724 199.6015 347.3840  2.00567860 35495
GPS BIII-4  (PRN 14)    
1 46826U 20078A   25103.48933580 -.00000011  00000+0  00000+0 0  9995
2 46826  54.0789 228.2106 0056902 199.9609 155.5328  2.00558570 32889
GPS BIII-5  (PRN 11)    
1 48859U 21054A   25100.49632350 -.00000102  00000+0  00000+0 0  9998
2 48859  55.3298 349.8286 0018626 229.2921 314.6706  2.00568226 28073
GPS BIII-6  (PRN 28)    
1 55268U 23009A   25106.74960972  .00000039  00000+0  00000+0 0  9998
2 55268  55.0891 165.2650 0002331 340.5710  76.1266  2.00572929 16696
GPS BIII-7  (PRN 01)    
1 62339U 24242A   25107.80392126 -.00000082  00000+0  00000+0 0  9992
2 62339  54.9836 351.4076 0005167 338.9454 199.6035  2.00557780  2729
